0088P         2026 03 18.8144  1.357675  0.563189  235.8871   56.6683    4.3820  20250227  11.0  6.0  88P/Howell                                               MPEC 2025-D44
0089P         2024 03 26.5962  2.222076  0.407541  250.4090   41.3443   12.0721  20250227  11.5  6.0  89P/Russell                                              MPEC 2025-CE3
0090P         2032 05 16.3200  2.961444  0.510792   29.1743   13.1940    9.6413  20250227   8.5  6.0  90P/Gehrels                                              MPEC 2022-K19
0091P         2028 10 19.2087  3.036138  0.262639  357.7404  242.5931   16.3603  20250227   7.5  6.0  91P/Russell                                              MPEC 2023-VM5
0092P         2027 07 15.3461  1.816187  0.660128  163.7885  181.3670   19.4822  20250227  12.0  6.0  92P/Sanguin                                              MPEC 2014-J58
0093P         2026 05  2.8897  1.688663  0.614000   75.0135  339.5543   12.2085  20250227   9.5  6.0  93P/Lovas                                                MPEC 2024-R10
0094P         2023 05 21.1119  2.225682  0.365920   92.3729   70.8505    6.1878  20250227   9.0  6.0  94P/Russell                                              MPEC 2024-R10
0095P         2046 08 17.8281  8.522848  0.377957  339.3518  209.1945    6.9264  20250227   6.5  2.0  95P/Chiron                                               MPC 75717
0096P         2023 01 31.2561  0.116109  0.961693   14.7360   93.9629   57.5873  20250227  13.0  4.8  96P/Machholz                                             MPEC 2025-D44
0096P      b  2023 01 31.1667  0.115970  0.961726   93.9969   14.6245   57.5027  20250227  13.0  4.8  96P-B/Machholz                                           MPC106348
0096P      c  2012 07 14.6812  0.123794  0.958898   15.5380   94.3495   58.5311             9.0  4.0  96P-C/Machholz                                           MPC103849
0097P         2022 02 16.0533  2.575025  0.460076  230.1783  184.0769   17.9408  20250227   5.5  6.0  97P/Metcalf-Brewington                                   MPEC 2024-GJ3
0098P         2028 05 16.5915  1.646689  0.564901  157.7059  114.5483   10.6133  20250227   9.0  8.0  98P/Takamizawa                                           MPEC 2021-W31
0099P         2022 04  9.0952  4.700682  0.228663  174.5493   28.0728    4.3391  20250227   4.5  6.0  99P/Kowal                                                MPEC 2024-R10
0100P         2022 08 10.3200  2.019191  0.411383  181.9380   37.6858   25.5673  20250227   9.0  8.0  100P/Hartley                                             MPEC 2023-OA6
0101P         2020 01 13.2667  2.351135  0.595790  277.9675  116.1292    5.0486  20250227  10.0  4.8  101P/Chernykh                                            MPEC 2024-R10
0101P      b  2020 01 31.0353  2.356186  0.596001  115.5895  278.5103    5.0502  20250227   9.0  4.0  101P-B/Chernykh                                          MPC105241
0102P         2028 07 10.6527  2.077474  0.456128   20.6795  339.3999   25.8571  20250227   6.5  8.0  102P/Shoemaker                                           MPEC 2022-C56
0103P         2023 10 12.4671  1.064908  0.693589  181.3237  219.7537   13.6092  20250227   8.5  8.0  103P/Hartley                                             MPEC 2025-CE3
0104P         2027 10 12.6860  1.071894  0.665937  227.2904  207.1924    5.7016  20250227  16.0  4.0  104P/Kowal                                               MPEC 2023-G31
0105P         2025 01 22.7551  2.052095  0.409106   46.3316  192.3964    9.1674  20250227  11.5  6.0  105P/SingerBrewster                                      MPEC 2024-F34
0106P         2021 08 19.1602  1.531131  0.593652  353.7944   48.8650   19.5363  20250227  14.0  4.8  106P/Schuster                                            MPEC 2024-R10
0107P         2026 11 25.5570  0.968808  0.631051   95.5223  266.7274    2.7986  20250227   9.0  4.0  107P/Wilson-Harrington                                   MPEC 2015-M77
0108P         2021 09 10.4940  1.662833  0.555811  354.5287   50.3006   11.4338  20250227   8.0 12.0  108P/Ciffreo                                             MPEC 2022-P82
0109P         1992 12 20.9588  0.974867  0.962803  153.2712  139.6615  113.1723  20250227   4.0  6.0  109P/Swift-Tuttle                                        105,  420
0110P         2021 10 19.3868  2.453300  0.319217  167.5467  287.4823   11.7111  20250227   1.0 12.0  110P/Hartley                                             MPEC 2023-KD6
0111P         2021 06 19.4421  3.707543  0.107207    1.3842   89.8100    4.2262  20250227   5.0  8.0  111P/Helin-Roman-Crockett                                MPC 75718
0112P         2026 09 21.7668  1.441216  0.590872   21.5415   31.8189   24.2039  20250227  14.0  6.0  112P/Urata-Niijima                                       MPEC 2021-S45
0113P         2022 06  1.8392  2.144320  0.419779  115.7196  306.6266    5.2875  20250227  13.5  4.0  113P/Spitaler                                            MPEC 2024-JU4
0114P         2026 09 14.9313  1.571408  0.556139  172.8002  271.0275   18.3044  20250227  11.5  6.0  114P/Wiseman-Skiff                                       MPEC 2023-A50
0115P         2029 05 25.6357  2.060508  0.517627  120.9194  176.0011   11.6784  20250227  10.5  6.0  115P/Maury                                               MPEC 2023-J29
0116P         2022 07 16.6570  2.194428  0.370567  173.1645   20.9612    3.6043  20250227   2.5 10.0  116P/Wild                                                MPEC 2024-RQ6
0117P         2022 07 12.6335  3.067599  0.253947  224.4634   58.8286    8.6911  20250227   2.5  8.0  117P/Helin-Roman-Alu                                     MPEC 2025-A40
0118P         2022 11 24.6873  1.829029  0.453826  314.9354  142.0602   10.0911  20250227  12.0  4.0  118P/Shoemaker-Levy                                      MPEC 2024-MB8
0119P         2022 08 12.4460  2.330198  0.388214  322.2529  104.5440    7.3927  20250227   3.5  8.0  119P/Parker-Hartley                                      MPEC 2024-R10
0120P         2021 05  7.7254  2.483645  0.374313   36.7744  358.7105    8.4825  20250227  12.0  4.0  120P/Mueller                                             MPEC 2022-CN4
0121P         2023 06 30.3875  3.731794  0.186713   11.9129   94.1051   20.1621  20250227   6.5  8.0  121P/Shoemaker-Holt                                      MPEC 2025-A40
0122P         1995 09 28.8772  0.659914  0.962574   13.0007   79.7448   86.0442  20250227   7.5  5.2  122P/de Vico                                             MPC 75718
0123P         2026 09 22.2726  2.157075  0.444481  103.9732   45.9005   15.2805  20250227  12.2  4.0  123P/West-Hartley                                        MPEC 2021-F20
0124P         2026 06 23.6538  1.733861  0.486448  185.1248    0.0082   31.4101  20250227  13.5  2.8  124P/Mrkos                                               MPEC 2024-UQ8
0125P         2024 03  7.2485  1.526482  0.512000   87.1158  153.1495    9.9858  20250227  13.0  6.0  125P/Spacewatch                                          MPEC 2024-UA9
0126P         2023 07  5.1303  1.710615  0.696115  356.5683  357.8582   45.8709  20250227   6.0  8.0  126P/IRAS                                                MPEC 2024-JU4
0127P         2022 08 10.1788  2.214451  0.358886    6.3394   13.6155   14.2968  20250227  11.0  6.0  127P/Holt-Olmstead                                       MPEC 2024-R10
0128P         2026 07 16.6729  3.037569  0.322412  210.4681  214.3257    4.3707  20250227   8.5  4.0  128P/Shoemaker-Holt                                      MPC 89014
0129P         2022 12  2.8120  3.924710  0.085898  307.7889  184.8498    3.4421  20250227  11.0  4.0  129P/Shoemaker-Levy                                      MPEC 2024-R10
0130P         2024 04 15.0543  1.823817  0.461078  246.2083   70.1806    6.0629  20250227  10.0  6.0  130P/McNaught-Hughes                                     MPEC 2025-D44
0131P         2026 02 15.5826  2.407983  0.344815  179.2283  214.1402    7.3617  20250227  11.0  4.0  131P/Mueller                                             MPEC 2025-A40
0132P         2021 11 13.0890  1.696228  0.564177  216.5002  173.9838    5.3786  20250227  11.0  6.0  132P/Helin-Roman-Alu                                     MPEC 2024-BE0
0133P         2024 05 10.1353  2.670652  0.155709  131.8758  160.1004    1.3899  20250227  15.4  2.0  133P/Elst-Pizarro                                        MPC 94676
0134P         2030 01  9.1762  2.600433  0.585388   18.6796  201.9974    4.3335  20250227  11.5  4.0  134P/Kowal-Vavrova                                       MPC 89012
0135P         2022 04  6.4982  2.685144  0.293629   22.3908  213.0200    6.0634  20250227   7.0  8.0  135P/Shoemaker-Levy                                      MPEC 2024-C04
0136P         2025 01  3.3623  2.958394  0.293110  225.2973  137.4228    9.4275  20250227  11.0  4.0  136P/Mueller                                             MPEC 2025-CE3
0137P         2028 07 29.1558  1.930929  0.573116  141.2252  232.9250    4.8603  20250227  11.0  4.0  137P/Shoemaker-Levy                                      MPEC 2023-J29
0138P         2026 03 24.2793  1.694445  0.531590   95.6819  309.2725   10.0994  20250227  15.0  6.0  138P/Shoemaker-Levy                                      MPEC 2016-U66
0139P         2027 07 22.6378  3.392937  0.248360  165.9559  242.1833    2.3375  20250227   9.5  4.0  139P/Vaisala-Oterma                                      MPEC 2020-HN5
0140P         2031 10  5.6259  1.952907  0.695411  172.1719  343.3788    3.7099  20250227  11.5  6.0  140P/Bowell-Skiff                                        MPEC 2015-E14
0141P         2026 04 22.9490  0.807259  0.735939  153.6449  241.7765   13.9628  20250227  12.0 12.0  141P/Machholz                                            MPEC 2024-R10
0141P      a  2026 04 23.3139  0.807259  0.735958  241.9222  153.5112   13.9416  20250227  12.0 12.0  141P-A/Machholz                                          MPEC 2015-KD9
